QIANFAN-65              
1 62795U 25016L   25248.59478081  .00000116  00000+0  16096-3 0  9998
2 62795  88.9774 113.2147 0012102 268.8078  91.1687 13.50967259 33991
QIANFAN-66              
1 62796U 25016M   25248.62356005  .00000115  00000+0  16007-3 0  9995
2 62796  88.9793 113.1626 0013193 263.5420  96.4229 13.50962428 34048
QIANFAN-67              
1 62797U 25016N   25248.62758603  .00000123  00000+0  17280-3 0  9999
2 62797  88.9783 113.1973 0013220 271.3783  88.5854 13.50971134 34010
QIANFAN-68              
1 62798U 25016P   25248.55763585  .00000113  00000+0  15650-3 0  9995
2 62798  88.9787 113.2491 0013828 269.5746  90.3821 13.50968576 33989
QIANFAN-69              
1 62799U 25016Q   25248.56180246  .00000103  00000+0  14054-3 0  9990
2 62799  88.9766 113.1363 0014013 270.6482  89.3064 13.50963999 34028
QIANFAN-70              
1 62800U 25016R   25248.57825131  .00000130  00000+0  18219-3 0  9990
2 62800  88.9787 113.2523 0013548 259.6900 100.2724 13.50968067 33988
QIANFAN-71              
1 62801U 25016S   25248.57421584  .00000125  00000+0  17544-3 0  9999
2 62801  88.9781 113.2382 0013958 274.5893  85.3663 13.50967659 33989
QIANFAN-72              
1 62802U 25016T   25248.57004746  .00000120  00000+0  16692-3 0  9995
2 62802  88.9770 113.2566 0017456 281.3013  78.6176 13.50963111 33971
